{"type":"FeatureCollection","features":[{"type":"Feature","properties":{"name":"Mizoram"},"geometry":{"type":"MultiPolygon","coordinates":[]}},{"type":"Feature","properties":{"name":"Tamil Nadu"},"geometry":{"type":"MultiPolygon","coordinates":[]}},{"type":"Feature","properties":{"name":"Madhya Pradesh"},"geometry":{"type":"MultiPolygon","coordinates":[]}},{"type":"Feature","properties":{"name":"Maharashtra"},"geometry":{"type":"MultiPolygon","coordinates":[]}},{"type":"Feature","properties":{"name":"Chhattisgarh"},"geometry":{"type":"MultiPolygon","coordinates":[]}},{"type":"Feature","properties":{"name":"Gujarat"},"geometry":{"type":"MultiPolygon","coordinates":[[[[71.28730310316507,24.61615196135345],[72.05814477274247,24.712540585053024],[72.33490973389392,24.63282294972916],[72.68342857386241,24.463688194935564],[72.95872917014006,24.360631175885704]],[[72.8670599290391,24.025089646214536],[72.95872917014006,24.360631175885704],[72.8670599290391,24.025089646214536],[72.8670599290391,24.025089646214536]],[[72.48632506184661,23.9356725267448],[72.8670599290391,24.025089646214536],[72.48632506184661,23.9356725267448],[72.48632506184661,23.9356725267448]],[[71.31951913038905,23.98386683859459],[72.48632506184661,23.9356725267448],[71.31951913038905,23.98386683859459],[71.31951913038905,23.98386683859459]],[[71.28730310316507,24.61615196135345],[71.31951913038905,23.98386683859459],[71.28730310316507,24.61615196135345],[71.28730310316507,24.61615196135345]]],[[[71.85108357958471,24.60978667488272],[72.05814477274247,24.712540585053024],[72.68342857386241,24.463688194935564],[73.02784719218423,24.273638927452435],[72.58443750839237,23.93597563562436],[72.2037026411999,24.149061177953925],[71.6797528893481,23.971439374532693],[71.28496011936697,23.99144456058355],[71.34792780894111,24.661012075528095],[71.85108357958471,24.60978667488272]]]]}},{"type":"Feature","properties":{"name":"Odisha"},"geometry":{"type":"MultiPolygon","coordinates":[]}},{"type":"Feature","properties":{"name":"Andhra Pradesh"},"geometry":{"type":"MultiPolygon","coordinates":[]}},{"type":"Feature","properties":{"name":"Karnataka"},"geometry":{"type":"MultiPolygon","coordinates":[]}},{"type":"Feature","properties":{"name":"Goa"},"geometry":{"type":"MultiPolygon","coordinates":[]}},{"type":"Feature","properties":{"name":"Kerala"},"geometry":{"type":"MultiPolygon","coordinates":[]}},{"type":"Feature","properties":{"name":"Telangana"},"geometry":{"type":"MultiPolygon","coordinates":[]}},{"type":"Feature","properties":{"name":"West Bengal"},"geometry":{"type":"MultiPolygon","coordinates":[]}},{"type":"Feature","properties":{"name":"Dadra and Nagar Haveli and Daman and Diu"},"geometry":{"type":"MultiPolygon","coordinates":[]}},{"type":"Feature","properties":{"name":"Puducherry"},"geometry":{"type":"MultiPolygon","coordinates":[]}},{"type":"Feature","properties":{"name":"Lakshadweep"},"geometry":{"type":"MultiPolygon","coordinates":[]}},{"type":"Feature","properties":{"name":"Arunachal Pradesh"},"geometry":{"type":"MultiPolygon","coordinates":[]}},{"type":"Feature","properties":{"name":"Assam"},"geometry":{"type":"MultiPolygon","coordinates":[]}},{"type":"Feature","properties":{"name":"Nagaland"},"geometry":{"type":"MultiPolygon","coordinates":[]}},{"type":"Feature","properties":{"name":"Meghalaya"},"geometry":{"type":"MultiPolygon","coordinates":[]}},{"type":"Feature","properties":{"name":"Manipur"},"geometry":{"type":"MultiPolygon","coordinates":[]}},{"type":"Feature","properties":{"name":"Tripura"},"geometry":{"type":"MultiPolygon","coordinates":[]}},{"type":"Feature","properties":{"name":"Andaman and Nicobar Islands"},"geometry":{"type":"MultiPolygon","coordinates":[]}},{"type":"Feature","properties":{"name":"Uttar Pradesh"},"geometry":{"type":"MultiPolygon","coordinates":[]}},{"type":"Feature","properties":{"name":"Rajasthan"},"geometry":{"type":"MultiPolygon","coordinates":[]}},{"type":"Feature","properties":{"name":"Delhi"},"geometry":{"type":"MultiPolygon","coordinates":[]}},{"type":"Feature","properties":{"name":"Haryana"},"geometry":{"type":"MultiPolygon","coordinates":[]}},{"type":"Feature","properties":{"name":"Sikkim"},"geometry":{"type":"MultiPolygon","coordinates":[]}},{"type":"Feature","properties":{"name":"Bihar"},"geometry":{"type":"MultiPolygon","coordinates":[]}},{"type":"Feature","properties":{"name":"Jharkhand"},"geometry":{"type":"MultiPolygon","coordinates":[]}},{"type":"Feature","properties":{"name":"Ladakh"},"geometry":{"type":"MultiPolygon","coordinates":[]}},{"type":"Feature","properties":{"name":"Jammu and Kashmir"},"geometry":{"type":"MultiPolygon","coordinates":[]}},{"type":"Feature","properties":{"name":"Himachal Pradesh"},"geometry":{"type":"MultiPolygon","coordinates":[]}},{"type":"Feature","properties":{"name":"Punjab"},"geometry":{"type":"MultiPolygon","coordinates":[]}},{"type":"Feature","properties":{"name":"Uttarakhand"},"geometry":{"type":"MultiPolygon","coordinates":[]}},{"type":"Feature","properties":{"name":"Chandigarh"},"geometry":{"type":"MultiPolygon","coordinates":[]}}]}